NORAD_CAT_ID,OBJECT_NAME,OBJECT_TYPE,EPOCH,MEAN_MOTION,ECCENTRICITY,INCLINATION,RA_OF_ASC_NODE,ARG_OF_PERICENTER,MEAN_ANOMALY,BSTAR,MEAN_MOTION_DOT,MEAN_MOTION_DDOT,TLE_LINE0,TLE_LINE1,TLE_LINE2,SEMIMAJOR_AXIS,PERIOD,APOGEE,PERIGEE,DECAYED
52669.0,STARLINK-3972,PAYLOAD,2022-08-23 14:00:01,15.08851762,0.0002703,53.2182,203.5887,48.5714,324.1349,-0.0021293,-0.0003403,0.0,0 STARLINK-3972,1 52669U 22053P   22235.58334491 -.00034030  00000-0 -21293-2 0  9992,2 52669  53.2182 203.5887 0002703  48.5714 324.1349 15.08851762  1308,6917.844,95.437,541.5790000000002,537.84,0.0
52669.0,STARLINK-3972,PAYLOAD,2022-08-23 22:00:01,15.08835874,0.0002666,53.2186,202.0916,52.8383,331.5237,0.0012339,0.00019402,0.0,0 STARLINK-3972,1 52669U 22053P   22235.91668981  .00019402  00000-0  12339-2 0  9998,2 52669  53.2186 202.0916 0002666  52.8383 331.5237 15.08835874  1301,6917.893,95.438,541.602,537.914,0.0
52669.0,STARLINK-3972,PAYLOAD,2022-08-24 04:00:00,15.08846198,0.0002832,53.2185,200.9708,50.0865,252.9112,-0.00091319,-0.00014796,0.0,0 STARLINK-3972,1 52669U 22053P   22236.16667824 -.00014796  00000-0 -91319-3 0  9990,2 52669  53.2185 200.9708 0002832  50.0865 252.9112 15.08846198 15759,6917.861,95.437,541.686,537.7669999999998,0.0
52669.0,STARLINK-3972,PAYLOAD,2022-08-24 14:00:01,15.088594699999998,0.0002801,53.2189,199.0997,50.7766,356.7137,-0.0019708,-0.00031536,0.0,0 STARLINK-3972,1 52669U 22053P   22236.58334491 -.00031536  00000-0 -19708-2 0  9999,2 52669  53.2189 199.0997 0002801  50.7766 356.7137 15.08859470  1307,6917.821,95.436,541.624,537.748,0.0
52669.0,STARLINK-3972,PAYLOAD,2022-08-24 20:00:01,15.08831741,0.0002747,53.2191,197.9766,54.1774,272.0244,0.0026198,0.00041645,0.0,0 STARLINK-3972,1 52669U 22053P   22236.83334491  .00041645  00000-0  26198-2 0  9998,2 52669  53.2191 197.9766 0002747  54.1774 272.0244 15.08831741 15852,6917.906,95.438,541.6709999999998,537.87,0.0
52669.0,STARLINK-3972,PAYLOAD,2022-08-24 22:00:00,15.08851434,0.000277,53.2193,197.6028,54.5481,4.5473,0.00082367,0.00012849,0.0,0 STARLINK-3972,1 52669U 22053P   22236.91667824  .00012849  00000-0  82367-3 0  9991,2 52669  53.2193 197.6028 0002770  54.5481   4.5473 15.08851434  1305,6917.845,95.437,541.627,537.794,0.0
52669.0,STARLINK-3972,PAYLOAD,2022-08-25 12:00:00,15.08882345,0.0002842999999999,53.2193,194.9853,50.5081,298.8991,-0.0051269,-0.00081067,0.0,0 STARLINK-3972,1 52669U 22053P   22237.50001157 -.00081067  00000-0 -51269-2 0  9994,2 52669  53.2193 194.9853 0002843  50.5081 298.8991 15.08882345 15958,6917.751,95.435,541.5830000000002,537.649,0.0
52669.0,STARLINK-3972,PAYLOAD,2022-08-25 14:00:01,15.08866508,0.0002788,53.2195,194.6107,52.2248,30.0911,-0.0041799,-0.00066253,0.0,0 STARLINK-3972,1 52669U 22053P   22237.58334491 -.00066253  00000-0 -41799-2 0  9999,2 52669  53.2195 194.6107 0002788  52.2248  30.0911 15.08866508  1306,6917.799,95.436,541.5930000000002,537.736,0.0
52669.0,STARLINK-3972,PAYLOAD,2022-08-25 18:00:00,15.088078,0.0002682,53.2188,193.8595,53.1502,214.9652,0.0028561,0.00045421,0.0,0 STARLINK-3972,1 52669U 22053P   22237.75001157  .00045421  00000-0  28561-2 0  9992,2 52669  53.2188 193.8595 0002682  53.1502 214.9652 15.08807800 15991,6917.979,95.44,541.6990000000002,537.988,0.0
52669.0,STARLINK-3972,PAYLOAD,2022-08-25 22:00:00,15.08834857,0.0002715,53.2185,193.1102,53.5988,40.2974,0.00082324,0.00012836,0.0,0 STARLINK-3972,1 52669U 22053P   22237.91667824  .00012836  00000-0  82324-3 0  9991,2 52669  53.2185 193.1102 0002715  53.5988  40.2974 15.08834857  1303,6917.896,95.438,541.639,537.883,0.0
52669.0,STARLINK-3972,PAYLOAD,2022-08-26 06:00:00,15.08821484,0.0002887999999999,53.2199,191.6195,51.6051,53.8825,0.0014267,0.0002248,0.0,0 STARLINK-3972,1 52669U 22053P   22238.25001157  .00022480  00000-0  14267-2 0  9996,2 52669  53.2199 191.6195 0002888  51.6051  53.8825 15.08821484 16071,6917.937,95.439,541.8,537.804,0.0
52669.0,STARLINK-3972,PAYLOAD,2022-08-26 14:00:01,15.08847261,0.000277,53.2199,190.1219,54.2451,62.8892,-0.0012142,-0.00019566,0.0,0 STARLINK-3972,1 52669U 22053P   22238.58335648 -.00019566  00000-0 -12142-2 0  9990,2 52669  53.2199 190.1219 0002770  54.2451  62.8892 15.08847261  1300,6917.858,95.437,541.639,537.807,0.0
52669.0,STARLINK-3972,PAYLOAD,2022-08-26 22:00:00,15.08850342,0.0002755,53.2202,188.6255,57.3605,71.3006,-0.00018741,-3.271e-05,0.0,0 STARLINK-3972,1 52669U 22053P   22238.91667824 -.00003271  00000-0 -18741-3 0  9999,2 52669  53.2202 188.6255 0002755  57.3605  71.3006 15.08850342  1301,6917.849,95.437,541.62,537.808,0.0
52669.0,STARLINK-3972,PAYLOAD,2022-08-27 14:00:01,15.08855457,0.0002763,53.22,185.6333,56.8043,95.0663,-0.00071149,-0.0001159999999999,0.0,0 STARLINK-3972,1 52669U 22053P   22239.58334491 -.00011600  00000-0 -71149-3 0  9990,2 52669  53.2200 185.6333 0002763  56.8043  95.0663 15.08855457  1306,6917.833000000001,95.437,541.61,537.7869999999998,0.0
52669.0,STARLINK-3972,PAYLOAD,2022-08-27 20:00:01,15.08859013,0.0002726,53.22,184.5107,59.3407,11.2345,-0.00093799,-0.00015194,0.0,0 STARLINK-3972,1 52669U 22053P   22239.83334491 -.00015194  00000-0 -93799-3 0  9995,2 52669  53.2200 184.5107 0002726  59.3407  11.2345 15.08859013 16310,6917.821999999999,95.436,541.573,537.8009999999998,0.0
52669.0,STARLINK-3972,PAYLOAD,2022-08-27 22:00:00,15.08872919,0.000273,53.2202,184.1371,59.2326,104.2419,-0.0032871,-0.00052274,0.0,0 STARLINK-3972,1 52669U 22053P   22239.91667824 -.00052274  00000-0 -32871-2 0  9996,2 52669  53.2202 184.1371 0002730  59.2326 104.2419 15.08872919  1303,6917.78,95.435,541.533,537.756,0.0
52669.0,STARLINK-3972,PAYLOAD,2022-08-28 14:00:01,15.08839876,0.0002695,53.2198,181.1447,58.0305,128.6475,-0.00014991,-2.674e-05,0.0,0 STARLINK-3972,1 52669U 22053P   22240.58334491 -.00002674  00000-0 -14991-3 0  9995,2 52669  53.2198 181.1447 0002695  58.0305 128.6475 15.08839876  1309,6917.880999999999,95.438,541.61,537.881,0.0
52669.0,STARLINK-3972,PAYLOAD,2022-08-28 22:00:00,15.08867294,0.0002714,53.2199,179.6488,60.468,137.7967,-0.0028787,-0.00045849,0.0,0 STARLINK-3972,1 52669U 22053P   22240.91667824 -.00045849  00000-0 -28787-2 0  9999,2 52669  53.2199 179.6488 0002714  60.4680 137.7967 15.08867294  1304,6917.797,95.436,541.539,537.784,0.0
52669.0,STARLINK-3972,PAYLOAD,2022-08-29 04:00:00,15.08827668,0.0002802,53.2197,178.5279,56.6545,60.3241,-0.00076063,-0.0001237,0.0,0 STARLINK-3972,1 52669U 22053P   22241.16667824 -.00012370  00000-0 -76063-3 0  9991,2 52669  53.2197 178.5279 0002802  56.6545  60.3241 15.08827668 16519,6917.918000000002,95.438,541.721,537.845,0.0
52669.0,STARLINK-3972,PAYLOAD,2022-08-29 14:00:01,15.08823591,0.0002665,53.2197,176.6561,58.6725,162.7797,0.00032741,4.924e-05,0.0,0 STARLINK-3972,1 52669U 22053P   22241.58334491  .00004924  00000-0  32741-3 0  9997,2 52669  53.2197 176.6561 0002665  58.6725 162.7797 15.08823591  1306,6917.931,95.439,541.639,537.952,0.0
52669.0,STARLINK-3972,PAYLOAD,2022-08-29 20:00:01,15.08833155,0.000272,53.2197,175.5337,61.6812,78.4512,0.00096965,0.00015175,0.0,0 STARLINK-3972,1 52669U 22053P   22241.83334491  .00015175  00000-0  96965-3 0  9993,2 52669  53.2197 175.5337 0002720  61.6812  78.4512 15.08833155 16613,6917.901,95.438,541.648,537.885,0.0
52669.0,STARLINK-3972,PAYLOAD,2022-08-29 22:00:00,15.08847377,0.0002739,53.2196,175.1603,60.9314,172.0948,-0.00081948,-0.0001330999999999,0.0,0 STARLINK-3972,1 52669U 22053P   22241.91667824 -.00013310  00000-0 -81948-3 0  9997,2 52669  53.2196 175.1603 0002739  60.9314 172.0948 15.08847377  1308,6917.858,95.437,541.618,537.828,0.0
52669.0,STARLINK-3972,PAYLOAD,2022-08-30 14:00:01,15.08841206,0.0002726,53.2197,172.1674,60.1046,196.1154,0.00022665,3.321e-05,0.0,0 STARLINK-3972,1 52669U 22053P   22242.58334491  .00003321  00000-0  22665-3 0  9992,2 52669  53.2197 172.1674 0002726  60.1046 196.1154 15.08841206  1305,6917.877,95.437,541.628,537.856,0.0
52669.0,STARLINK-3972,PAYLOAD,2022-08-30 22:00:00,15.08839619,0.0002735,53.2196,170.6717,60.6249,207.173,-0.0010019,-0.00016199,0.0,0 STARLINK-3972,1 52669U 22053P   22242.91667824 -.00016199  00000-0 -10019-2 0  9996,2 52669  53.2196 170.6717 0002735  60.6249 207.1730 15.08839619 16770,6917.882,95.438,541.639,537.855,0.0
52669.0,STARLINK-3972,PAYLOAD,2022-08-31 12:00:00,15.08849025,0.0002757,53.2196,168.0531,59.4464,138.6257,-0.0012347,-0.00019891,0.0,0 STARLINK-3972,1 52669U 22053P   22243.50001157 -.00019891  00000-0 -12347-2 0  9991,2 52669  53.2196 168.0531 0002757  59.4464 138.6257 15.08849025 16868,6917.853,95.437,541.625,537.811,0.0
52669.0,STARLINK-3972,PAYLOAD,2022-08-31 14:00:01,15.08827113,0.0002728999999999,53.2198,167.6787,60.6105,230.368,0.0016143,0.00025489,0.0,0 STARLINK-3972,1 52669U 22053P   22243.58334491  .00025489  00000-0  16143-2 0  9995,2 52669  53.2198 167.6787 0002729  60.6105 230.3680 15.08827113  1300,6917.92,95.438,541.673,537.8969999999998,0.0
52669.0,STARLINK-3972,PAYLOAD,2022-08-31 22:00:00,15.08870697,0.0002791,53.2198,166.1829,61.5927,240.9714,-0.0026925,-0.00042924,0.0,0 STARLINK-3972,1 52669U 22053P   22243.91667824 -.00042924  00000-0 -26925-2 0  9995,2 52669  53.2198 166.1829 0002791  61.5927 240.9714 15.08870697  1302,6917.7869999999975,95.436,541.582,537.721,0.0
52669.0,STARLINK-3972,PAYLOAD,2022-09-01 04:00:01,15.08829136,0.0002883,53.2198,165.0619,58.0096,163.3366,0.00026015,3.853e-05,0.0,0 STARLINK-3972,1 52669U 22053P   22244.16668981  .00003853  00000-0  26015-3 0  9995,2 52669  53.2198 165.0619 0002883  58.0096 163.3366 15.08829136 16968,6917.9140000000025,95.438,541.773,537.784,0.0
52669.0,STARLINK-3972,PAYLOAD,2022-09-01 14:00:01,15.08817771,0.0002696,53.2197,163.1896,61.6007,264.2353,0.0022593,0.00035831,0.0,0 STARLINK-3972,1 52669U 22053P   22244.58335648  .00035831  00000-0  22593-2 0  9999,2 52669  53.2197 163.1896 0002696  61.6007 264.2353 15.08817771  1308,6917.948,95.439,541.678,537.948,0.0
